UNKNOWN                 
1 83903U          26091.18296000 -.00000178  00000+0  00000+0 0  9992
2 83903   5.9158 289.6797 0122017 254.3335  78.1692  0.99116761 44741
UNKNOWN                 
1 83934U          26090.45032684 -.00000318  00000+0  00000+0 0  9997
2 83934   5.5398 296.8253 0223010 275.9404  45.0868  1.02664222 46391
UNKNOWN                 
1 84006U          26089.38104981 -.00000005  00000+0  00000+0 0  9991
2 84006  22.3944 155.4727 6167335  98.4583 331.2963  2.16230878 86551
UNKNOWN                 
1 84177U          26085.98990080  .00004124  00000+0  53429-2 0  9996
2 84177   7.5543 125.0345 6584629 203.9091 101.2563  3.11924316133361
UNKNOWN                 
1 84188U          26090.46437982  .00242506  00000+0  11952+0 0  9994
2 84188  64.8863 157.3890 3466746   5.7927 357.4019  8.12787341 49862
UNKNOWN                 
1 84192U          26085.94961519  .00004983  00000+0  13663-1 0  9992
2 84192   6.1026  57.5144 6956391 338.3085   2.7316  2.59776346112569
UNKNOWN                 
1 84232U          26091.45285537  .00063571  00000+0  38520-1 0  9996
2 84232  20.3051 210.3454 6522867 179.7101 181.1424  3.24019470108205
UNKNOWN                 
1 84236U          26091.05953159  .00001159  00000+0  72482-2 0  9998
2 84236   9.2207 286.2955 6890403 190.9033 137.9089  2.62718395116858
UNKNOWN                 
1 84292U          26091.09432421  .00003988  00000+0  25071-2 0  9992
2 84292  23.8391   8.8148 4550616 143.5257 258.4122  6.22446074234879
UNKNOWN                 
1 84406U          26085.69393062  .00000555  00000+0  31186-2 0  9996
2 84406 101.7219 236.2012 0050727 192.1916 180.3498 12.67518606 62464
UNKNOWN                 
1 84407U          26089.78844445  .00000296  00000+0  22013-1 0  9997
2 84407  19.4334 290.6988 7217988 119.9189 328.9794  2.05798943 78094
UNKNOWN                 
1 84575U          26088.25696486 -.00000197  00000+0 -86336-5 0  9998
2 84575  18.0449 122.6779 7120781  87.8046 344.8145  2.19858707 67807
