CCSDS_OMM_VERS = 2.0
CREATION_DATE  = 
ORIGINATOR     = 

OBJECT_NAME    = UNKNOWN
OBJECT_ID      = 
CENTER_NAME    = EARTH
REF_FRAME      = TEME
TIME_SYSTEM    = UTC
MEAN_ELEMENT_THEORY = SGP/SGP4

EPOCH          = 2026-04-01T04:23:27.744000
MEAN_MOTION    = 0.99116761
ECCENTRICITY   = .0122017
INCLINATION    = 5.9158
RA_OF_ASC_NODE = 289.6797
ARG_OF_PERICENTER = 254.3335
MEAN_ANOMALY   = 78.1692

EPHEMERIS_TYPE = 0
CLASSIFICATION_TYPE = U
NORAD_CAT_ID   = 83903
ELEMENT_SET_NO = 999
REV_AT_EPOCH   = 4474
BSTAR          = 0
MEAN_MOTION_DOT = -.178E-5
MEAN_MOTION_DDOT = 0

CCSDS_OMM_VERS = 2.0
CREATION_DATE  = 
ORIGINATOR     = 

OBJECT_NAME    = UNKNOWN
OBJECT_ID      = 
CENTER_NAME    = EARTH
REF_FRAME      = TEME
TIME_SYSTEM    = UTC
MEAN_ELEMENT_THEORY = SGP/SGP4

EPOCH          = 2026-03-31T10:48:28.238976
MEAN_MOTION    = 1.02664222
ECCENTRICITY   = .022301
INCLINATION    = 5.5398
RA_OF_ASC_NODE = 296.8253
ARG_OF_PERICENTER = 275.9404
MEAN_ANOMALY   = 45.0868

EPHEMERIS_TYPE = 0
CLASSIFICATION_TYPE = U
NORAD_CAT_ID   = 83934
ELEMENT_SET_NO = 999
REV_AT_EPOCH   = 4639
BSTAR          = 0
MEAN_MOTION_DOT = -.318E-5
MEAN_MOTION_DDOT = 0

CCSDS_OMM_VERS = 2.0
CREATION_DATE  = 
ORIGINATOR     = 

OBJECT_NAME    = UNKNOWN
OBJECT_ID      = 
CENTER_NAME    = EARTH
REF_FRAME      = TEME
TIME_SYSTEM    = UTC
MEAN_ELEMENT_THEORY = SGP/SGP4

EPOCH          = 2026-03-30T09:08:42.703584
MEAN_MOTION    = 2.16230878
ECCENTRICITY   = .6167335
INCLINATION    = 22.3944
RA_OF_ASC_NODE = 155.4727
ARG_OF_PERICENTER = 98.4583
MEAN_ANOMALY   = 331.2963

EPHEMERIS_TYPE = 0
CLASSIFICATION_TYPE = U
NORAD_CAT_ID   = 84006
ELEMENT_SET_NO = 999
REV_AT_EPOCH   = 8655
BSTAR          = 0
MEAN_MOTION_DOT = -.5E-7
MEAN_MOTION_DDOT = 0

CCSDS_OMM_VERS = 2.0
CREATION_DATE  = 
ORIGINATOR     = 

OBJECT_NAME    = UNKNOWN
OBJECT_ID      = 
CENTER_NAME    = EARTH
REF_FRAME      = TEME
TIME_SYSTEM    = UTC
MEAN_ELEMENT_THEORY = SGP/SGP4

EPOCH          = 2026-03-26T23:45:27.429120
MEAN_MOTION    = 3.11924316
ECCENTRICITY   = .6584629
INCLINATION    = 7.5543
RA_OF_ASC_NODE = 125.0345
ARG_OF_PERICENTER = 203.9091
MEAN_ANOMALY   = 101.2563

EPHEMERIS_TYPE = 0
CLASSIFICATION_TYPE = U
NORAD_CAT_ID   = 84177
ELEMENT_SET_NO = 999
REV_AT_EPOCH   = 13336
BSTAR          = .53429E-2
MEAN_MOTION_DOT = .4124E-4
MEAN_MOTION_DDOT = 0

CCSDS_OMM_VERS = 2.0
CREATION_DATE  = 
ORIGINATOR     = 

OBJECT_NAME    = UNKNOWN
OBJECT_ID      = 
CENTER_NAME    = EARTH
REF_FRAME      = TEME
TIME_SYSTEM    = UTC
MEAN_ELEMENT_THEORY = SGP/SGP4

EPOCH          = 2026-03-31T11:08:42.416448
MEAN_MOTION    = 8.12787341
ECCENTRICITY   = .3466746
INCLINATION    = 64.8863
RA_OF_ASC_NODE = 157.3890
ARG_OF_PERICENTER = 5.7927
MEAN_ANOMALY   = 357.4019

EPHEMERIS_TYPE = 0
CLASSIFICATION_TYPE = U
NORAD_CAT_ID   = 84188
ELEMENT_SET_NO = 999
REV_AT_EPOCH   = 4986
BSTAR          = .11952E+0
MEAN_MOTION_DOT = .242506E-2
MEAN_MOTION_DDOT = 0

CCSDS_OMM_VERS = 2.0
CREATION_DATE  = 
ORIGINATOR     = 

OBJECT_NAME    = UNKNOWN
OBJECT_ID      = 
CENTER_NAME    = EARTH
REF_FRAME      = TEME
TIME_SYSTEM    = UTC
MEAN_ELEMENT_THEORY = SGP/SGP4

EPOCH          = 2026-03-26T22:47:26.752416
MEAN_MOTION    = 2.59776346
ECCENTRICITY   = .6956391
INCLINATION    = 6.1026
RA_OF_ASC_NODE = 57.5144
ARG_OF_PERICENTER = 338.3085
MEAN_ANOMALY   = 2.7316

EPHEMERIS_TYPE = 0
CLASSIFICATION_TYPE = U
NORAD_CAT_ID   = 84192
ELEMENT_SET_NO = 999
REV_AT_EPOCH   = 11256
BSTAR          = .13663E-1
MEAN_MOTION_DOT = .4983E-4
MEAN_MOTION_DDOT = 0

CCSDS_OMM_VERS = 2.0
CREATION_DATE  = 
ORIGINATOR     = 

OBJECT_NAME    = UNKNOWN
OBJECT_ID      = 
CENTER_NAME    = EARTH
REF_FRAME      = TEME
TIME_SYSTEM    = UTC
MEAN_ELEMENT_THEORY = SGP/SGP4

EPOCH          = 2026-04-01T10:52:06.703968
MEAN_MOTION    = 3.24019470
ECCENTRICITY   = .6522867
INCLINATION    = 20.3051
RA_OF_ASC_NODE = 210.3454
ARG_OF_PERICENTER = 179.7101
MEAN_ANOMALY   = 181.1424

EPHEMERIS_TYPE = 0
CLASSIFICATION_TYPE = U
NORAD_CAT_ID   = 84232
ELEMENT_SET_NO = 999
REV_AT_EPOCH   = 10820
BSTAR          = .3852E-1
MEAN_MOTION_DOT = .63571E-3
MEAN_MOTION_DDOT = 0

CCSDS_OMM_VERS = 2.0
CREATION_DATE  = 
ORIGINATOR     = 

OBJECT_NAME    = UNKNOWN
OBJECT_ID      = 
CENTER_NAME    = EARTH
REF_FRAME      = TEME
TIME_SYSTEM    = UTC
MEAN_ELEMENT_THEORY = SGP/SGP4

EPOCH          = 2026-04-01T01:25:43.529376
MEAN_MOTION    = 2.62718395
ECCENTRICITY   = .6890403
INCLINATION    = 9.2207
RA_OF_ASC_NODE = 286.2955
ARG_OF_PERICENTER = 190.9033
MEAN_ANOMALY   = 137.9089

EPHEMERIS_TYPE = 0
CLASSIFICATION_TYPE = U
NORAD_CAT_ID   = 84236
ELEMENT_SET_NO = 999
REV_AT_EPOCH   = 11685
BSTAR          = .72482E-2
MEAN_MOTION_DOT = .1159E-4
MEAN_MOTION_DDOT = 0

CCSDS_OMM_VERS = 2.0
CREATION_DATE  = 
ORIGINATOR     = 

OBJECT_NAME    = UNKNOWN
OBJECT_ID      = 
CENTER_NAME    = EARTH
REF_FRAME      = TEME
TIME_SYSTEM    = UTC
MEAN_ELEMENT_THEORY = SGP/SGP4

EPOCH          = 2026-04-01T02:15:49.611744
MEAN_MOTION    = 6.22446074
ECCENTRICITY   = .4550616
INCLINATION    = 23.8391
RA_OF_ASC_NODE = 8.8148
ARG_OF_PERICENTER = 143.5257
MEAN_ANOMALY   = 258.4122

EPHEMERIS_TYPE = 0
CLASSIFICATION_TYPE = U
NORAD_CAT_ID   = 84292
ELEMENT_SET_NO = 999
REV_AT_EPOCH   = 23487
BSTAR          = .25071E-2
MEAN_MOTION_DOT = .3988E-4
MEAN_MOTION_DDOT = 0

CCSDS_OMM_VERS = 2.0
CREATION_DATE  = 
ORIGINATOR     = 

OBJECT_NAME    = UNKNOWN
OBJECT_ID      = 
CENTER_NAME    = EARTH
REF_FRAME      = TEME
TIME_SYSTEM    = UTC
MEAN_ELEMENT_THEORY = SGP/SGP4

EPOCH          = 2026-03-26T16:39:15.605568
MEAN_MOTION    = 12.67518606
ECCENTRICITY   = .0050727
INCLINATION    = 101.7219
RA_OF_ASC_NODE = 236.2012
ARG_OF_PERICENTER = 192.1916
MEAN_ANOMALY   = 180.3498

EPHEMERIS_TYPE = 0
CLASSIFICATION_TYPE = U
NORAD_CAT_ID   = 84406
ELEMENT_SET_NO = 999
REV_AT_EPOCH   = 6246
BSTAR          = .31186E-2
MEAN_MOTION_DOT = .555E-5
MEAN_MOTION_DDOT = 0

CCSDS_OMM_VERS = 2.0
CREATION_DATE  = 
ORIGINATOR     = 

OBJECT_NAME    = UNKNOWN
OBJECT_ID      = 
CENTER_NAME    = EARTH
REF_FRAME      = TEME
TIME_SYSTEM    = UTC
MEAN_ELEMENT_THEORY = SGP/SGP4

EPOCH          = 2026-03-30T18:55:21.600480
MEAN_MOTION    = 2.05798943
ECCENTRICITY   = .7217988
INCLINATION    = 19.4334
RA_OF_ASC_NODE = 290.6988
ARG_OF_PERICENTER = 119.9189
MEAN_ANOMALY   = 328.9794

EPHEMERIS_TYPE = 0
CLASSIFICATION_TYPE = U
NORAD_CAT_ID   = 84407
ELEMENT_SET_NO = 999
REV_AT_EPOCH   = 7809
BSTAR          = .22013E-1
MEAN_MOTION_DOT = .296E-5
MEAN_MOTION_DDOT = 0

CCSDS_OMM_VERS = 2.0
CREATION_DATE  = 
ORIGINATOR     = 

OBJECT_NAME    = UNKNOWN
OBJECT_ID      = 
CENTER_NAME    = EARTH
REF_FRAME      = TEME
TIME_SYSTEM    = UTC
MEAN_ELEMENT_THEORY = SGP/SGP4

EPOCH          = 2026-03-29T06:10:01.763904
MEAN_MOTION    = 2.19858707
ECCENTRICITY   = .7120781
INCLINATION    = 18.0449
RA_OF_ASC_NODE = 122.6779
ARG_OF_PERICENTER = 87.8046
MEAN_ANOMALY   = 344.8145

EPHEMERIS_TYPE = 0
CLASSIFICATION_TYPE = U
NORAD_CAT_ID   = 84575
ELEMENT_SET_NO = 999
REV_AT_EPOCH   = 6780
BSTAR          = -.86336E-5
MEAN_MOTION_DOT = -.197E-5
MEAN_MOTION_DDOT = 0

